[{"OBJECT_NAME":"STARLINK-6119","OBJECT_ID":"2023-046AK","EPOCH":"2026-03-09T22:00:01.999584","MEAN_MOTION":15.103218,"ECCENTRICITY":0.000216,"INCLINATION":42.9993,"RA_OF_ASC_NODE":144.8202,"ARG_OF_PERICENTER":278.4603,"MEAN_ANOMALY":137.1254,"EPHEMERIS_TYPE":0,"CLASSIFICATION_TYPE":"U","NORAD_CAT_ID":56125,"ELEMENT_SET_NO":999,"REV_AT_EPOCH":577,"BSTAR":0.00029755128,"MEAN_MOTION_DOT":4.746e-5,"MEAN_MOTION_DDOT":0},{"OBJECT_NAME":"CZ-6A DEB","OBJECT_ID":"2024-140ZB","EPOCH":"2026-03-09T13:53:53.181600","MEAN_MOTION":15.04943741,"ECCENTRICITY":0.0099448,"INCLINATION":89.0521,"RA_OF_ASC_NODE":283.407,"ARG_OF_PERICENTER":138.6562,"MEAN_ANOMALY":222.2259,"EPHEMERIS_TYPE":0,"CLASSIFICATION_TYPE":"U","NORAD_CAT_ID":61434,"ELEMENT_SET_NO":999,"REV_AT_EPOCH":8386,"BSTAR":0.0022399,"MEAN_MOTION_DOT":0.00035579,"MEAN_MOTION_DDOT":0}]
